STARLINK-6240           
1 57084U 23088AN  25135.37548946  .00000392  00000+0  44111-4 0  9995
2 57084  43.0031 275.5779 0001582 281.6213  78.4451 15.02538201105640
STARLINK-6232           
1 57085U 23088AP  25135.36217983 -.00001468  00000+0 -93624-4 0  9999
2 57085  43.0021 275.4777 0000916 279.9459  80.1280 15.02530324105647
STARLINK-6247           
1 57086U 23088AQ  25134.84033870  .00001198  00000+0  10374-3 0  9991
2 57086  43.0043 278.4433 0001248 275.2126  84.8574 15.02539954105569
STARLINK-6251           
1 57087U 23088AR  25135.55827713  .00001080  00000+0  95023-4 0  9993
2 57087  43.0037 274.3689 0001292 270.6279  89.4415 15.02529317105677
STARLINK-6257           
1 57088U 23088AS  25135.43530968  .00001607  00000+0  13400-3 0  9997
2 57088  43.0029 275.1617 0000382 271.2644  88.8154 15.02538716105655
STARLINK-6259           
1 57089U 23088AT  25135.41532942  .00001117  00000+0  97771-4 0  9990
2 57089  43.0053 275.0182 0001672 260.7483  99.3171 15.02534938105654
STARLINK-6254           
1 57090U 23088AU  25135.35772704  .00001340  00000+0  11424-3 0  9995
2 57090  43.0035 275.4429 0001594 272.5802  87.4858 15.02537981105643
STARLINK-6262           
1 57091U 23088AV  25134.88683563  .00000347  00000+0  40747-4 0  9994
2 57091  43.0031 277.9287 0001202 263.3563  96.7143 15.02535279104666
STARLINK-6225           
1 57092U 23088AW  25135.42088406  .00000036  00000+0  17714-4 0  9994
2 57092  43.0022 275.0542 0001430 279.9580  80.1100 15.02550872105651
STARLINK-6229           
1 57093U 23088AX  25135.41200133  .00000366  00000+0  42173-4 0  9990
2 57093  43.0029 274.9959 0001019 274.9160  85.1566 15.02535136105658
STARLINK-6235           
1 57094U 23088AY  25135.41089143  .00000377  00000+0  43014-4 0  9994
2 57094  43.0017 274.9825 0001233 259.1715 100.8988 15.02530976105657
STARLINK-6132           
1 57101U 23090A   25134.37117654 -.00000196  00000+0  57323-6 0  9999
2 57101  43.0026 101.4480 0001206 266.2990  93.7715 15.02538123105381
STARLINK-6111           
1 57102U 23090B   25134.89744831  .00000091  00000+0  21820-4 0  9994
2 57102  43.0035  98.5165 0001192 275.4580  84.6126 15.02536438105460
STARLINK-6130           
1 57104U 23090D   25135.23205999  .00000208  00000+0  30446-4 0  9996
2 57104  43.0035  96.7241 0001236 266.7804  93.2897 15.02535092104373
STARLINK-6097           
1 57105U 23090E   25135.29521139 -.00000358  00000+0 -11404-4 0  9991
2 57105  43.0034  96.3398 0001235 270.6317  89.4384 15.02537073105521
STARLINK-6118           
1 57106U 23090F   25135.28967451  .00000742  00000+0  69972-4 0  9990
2 57106  43.0024  96.2948 0001118 261.7555  98.3161 15.02535834105521
STARLINK-6131           
1 57107U 23090G   25135.27633917  .00000556  00000+0  56204-4 0  9994
2 57107  43.0033  96.1950 0001166 267.6386  92.4323 15.02535335105525
STARLINK-6099           
1 57108U 23090H   25135.29188058 -.00000515  00000+0 -23079-4 0  9999
2 57108  43.0027  96.3118 0001105 268.5295  91.5421 15.02534888105520
STARLINK-6139           
1 57109U 23090J   25135.28188934  .00000619  00000+0  60923-4 0  9994
2 57109  43.0032  96.2401 0001203 265.6709  94.3996 15.02535413105521
STARLINK-6134           
1 57110U 23090K   25135.29298838  .00001229  00000+0  10601-3 0  9997
2 57110  43.0034  96.3213 0001168 270.9852  89.0857 15.02539350105526
STARLINK-6140           
1 57111U 23090L   25135.13674498 -.00000259  00000+0 -41042-5 0  9990
2 57111  43.0041  96.8675 0001111 265.9683  94.1033 15.02522964105500
STARLINK-6141           
1 57112U 23090M   25135.28632778  .00000028  00000+0  17136-4 0  9990
2 57112  43.0038  96.2703 0001661 244.9129 115.1541 15.02537432105521
STARLINK-6142           
1 57113U 23090N   25135.14226361  .00004778  00000+0  36836-3 0  9996
2 57113  43.0026  96.9112 0001097 268.1851  91.8866 15.02550687105508
STARLINK-6125           
1 57114U 23090P   25135.27192786 -.00002612  00000+0 -17849-3 0  9994
2 57114  43.0021  96.1637 0001027 268.2658  91.8067 15.02513512105528
STARLINK-6085           
1 57115U 23090Q   25135.26634969  .00000705  00000+0  67282-4 0  9994
2 57115  43.0033  96.1215 0001183 268.3932  91.6775 15.02535054105522
STARLINK-6129           
1 57116U 23090R   25135.27855972  .00000231  00000+0  32187-4 0  9995
2 57116  43.0029  96.2152 0001046 279.7501  80.3223 15.02538167105526
STARLINK-6148           
1 57117U 23090S   25134.59825766  .00002787  00000+0  22138-3 0  9990
2 57117  43.0030  99.7051 0001270 274.8014  85.2683 15.02525308105425
STARLINK-6151           
1 57118U 23090T   25135.27719222  .00020384  00000+0  12452-2 0  9996
2 57118  42.9994  92.8110 0007785 163.5327 196.5772 15.09908994105564
STARLINK-6150           
1 57119U 23090U   25135.25858541 -.00000664  00000+0 -34100-4 0  9990
2 57119  43.0037  96.0577 0000949 255.5420 104.5317 15.02543057105527
STARLINK-6147           
1 57120U 23090V   25134.60046968  .00001433  00000+0  12113-3 0  9994
2 57120  43.0030  99.7229 0001085 275.8515  84.2203 15.02543421105420
STARLINK-6152           
1 57121U 23090W   25135.31617754  .00000178  00000+0  28206-4 0  9997
2 57121  43.0033  95.6303 0000806 271.3310  88.7440 15.02539556105343
STARLINK-6149           
1 57122U 23090X   25135.25524855  .00000714  00000+0  67887-4 0  9994
2 57122  43.0031  96.0341 0001109 271.8741  88.1974 15.02536108105525
STARLINK-6154           
1 57123U 23090Y   25135.31286968  .00006463  00000+0  49331-3 0  9992
2 57123  43.0024  95.6059 0001232 269.8621  90.2080 15.02519268105340
STARLINK-6146           
1 57124U 23090Z   25135.25303376  .00000103  00000+0  22667-4 0  9998
2 57124  43.0031  96.0160 0001001 269.3161  90.7567 15.02532168105524
STARLINK-6100           
1 57125U 23090AA  25134.89992609  .00000272  00000+0  35180-4 0  9992
2 57125  43.0032  85.5119 0001118 272.8190  87.2524 15.02535292104471
STARLINK-6167           
1 57126U 23090AB  25135.31840104  .00000420  00000+0  46157-4 0  9994
2 57126  43.0029  95.6470 0001046 271.8652  88.2071 15.02535504105534
STARLINK-6165           
1 57127U 23090AC  25134.90952062 -.00012290  00000+0 -89514-3 0  9999
2 57127  43.0031  97.7382 0001563 256.5946 103.4722 15.02583504105281
STARLINK-6163           
1 57128U 23090AD  25135.31507094  .00000032  00000+0  17414-4 0  9997
2 57128  43.0029  95.6200 0001142 270.2438  89.8273 15.02535147105342
STARLINK-6170           
1 57129U 23090AE  25135.18026522  .00000310  00000+0  38054-4 0  9997
2 57129  43.0026  84.1763 0001155 265.6304  94.4407 15.02532175105463
STARLINK-6172           
1 57130U 23090AF  25134.91064814 -.00001389  00000+0 -87781-4 0  9995
2 57130  43.0035  97.7461 0001347 277.7673  82.3017 15.02529411105288
STARLINK-6162           
1 57131U 23090AG  25135.24230451  .00000239  00000+0  32786-4 0  9991
2 57131  43.0034  83.7806 0001163 267.5842  92.4867 15.02533954105470
STARLINK-6128           
1 57132U 23090AH  25134.97046407 -.00008521  00000+0 -61605-3 0  9992
2 57132  42.9996  97.3338 0001188 263.7112  96.3595 15.02560541105295
STARLINK-6143           
1 57133U 23090AJ  25135.22898730 -.00000025  00000+0  13228-4 0  9995
2 57133  43.0015  83.6810 0001119 267.0924  92.9790 15.02536566105474
STARLINK-6133           
1 57134U 23090AK  25135.24341626  .00000213  00000+0  30856-4 0  9999
2 57134  43.0033  83.7866 0001376 267.0596  93.0088 15.02533799105474
STARLINK-6127           
1 57135U 23090AL  25135.21899466  .00000735  00000+0  69504-4 0  9998
2 57135  43.0029  83.6001 0001111 271.3572  88.7143 15.02536403105477
STARLINK-6112           
1 57136U 23090AM  25135.17360960  .00000417  00000+0  45949-4 0  9990
2 57136  43.0035  84.1258 0001057 267.6668  92.4053 15.02534956105482
STARLINK-5347           
1 57137U 23090AN  25134.89437629  .00000002  00000+0  15212-4 0  9996
2 57137  43.0041  85.4656 0001183 268.5635  91.5071 15.02536640105426
STARLINK-5336           
1 57138U 23090AP  25134.57420322  .00000898  00000+0  81544-4 0  9998
2 57138  43.0024  87.3675 0001095 273.2114  86.8603 15.02525005105372
STARLINK-5355           
1 57139U 23090AQ  25135.28880228  .00000358  00000+0  41600-4 0  9993
2 57139  43.0027  83.2690 0001051 276.5536  83.5186 15.02536325105483
STARLINK-5357           
1 57141U 23090AS  25135.28325225 -.00000081  00000+0  90650-5 0  9991
2 57141  43.0032  83.2247 0001091 262.4693  97.6026 15.02537054105481
STARLINK-5361           
1 57142U 23090AT  25135.21233513  .00000801  00000+0  74350-4 0  9990
2 57142  43.0029  83.5508 0001049 263.6186  96.4537 15.02528986105471
STARLINK-5358           
1 57143U 23090AU  25135.20903704 -.00003824  00000+0 -26821-3 0  9995
2 57143  43.0039  83.5298 0002785 265.4114  94.6410 15.02521121105472
STARLINK-5150           
1 57144U 23090AV  25135.28658234 -.00000100  00000+0  76805-5 0  9991
2 57144  43.0038  83.2463 0001236 267.1654  92.9047 15.02536248105485
STARLINK-5768           
1 57145U 23090AW  25135.26660288 -.00000029  00000+0  12957-4 0  9999
2 57145  43.0040  83.0994 0001154 267.5441  92.5269 15.02538727105489
STARLINK-5791           
1 57146U 23090AX  25134.87439865  .00000570  00000+0  57274-4 0  9992
2 57146  43.0029  85.3132 0001761 269.5393  90.5247 15.02547990105428
STARLINK-5765           
1 57147U 23090AY  25135.12921589 -.00000304  00000+0 -74312-5 0  9991
2 57147  43.0034  83.7843 0001022 267.6538  92.4188 15.02532570105654
STARLINK-5788           
1 57148U 23090AZ  25135.25550180  .00000331  00000+0  39585-4 0  9991
2 57148  43.0039  83.0151 0001220 265.5537  94.5166 15.02525008105489
STARLINK-5778           
1 57149U 23090BA  25135.14304040 -.00000384  00000+0 -13318-4 0  9998
2 57149  43.0058  57.8453 0001266 260.7811  99.2888 15.02534373105957
STARLINK-5780           
1 57150U 23090BB  25135.26993757 -.00000009  00000+0  14383-4 0  9998
2 57150  43.0044  83.1247 0001214 275.0401  85.0303 15.02533689105677
